IRIDIUM 159             
1 43578U 18061K   23284.58646151  .00000257  00000+0  84667-4 0  9996
2 43578  86.3912 106.1382 0002160  87.3337 272.8106 14.34220756272976
IRIDIUM 180             
1 43922U 19002A   23283.60919801  .00000382  00000+0  12921-3 0  9994
2 43922  86.3993  43.3857 0002246  98.5017 261.6433 14.34219360248444
IRIDIUM 176             
1 43923U 19002B   23284.60834651  .00002865  00000+0  45022-3 0  9991
2 43923  86.6124  43.0017 0002365  93.3707 266.7781 14.72265842255123
IRIDIUM 168             
1 43924U 19002C   23284.57961387  .00000620  00000+0  21446-3 0  9996
2 43924  86.3996  43.0299 0002277  94.8044 265.3412 14.34220706248566
IRIDIUM 173             
1 43925U 19002D   23284.42739062  .00000662  00000+0  22940-3 0  9990
2 43925  86.3995  43.0229 0002242  94.2099 265.9353 14.34221783248527
IRIDIUM 169             
1 43926U 19002E   23284.14181210  .00000862  00000+0  27521-3 0  9998
2 43926  86.4190  74.7643 0002964  12.7857 347.3416 14.38620199249327
IRIDIUM 172             
1 43927U 19002F   23283.58382146  .00000541  00000+0  18627-3 0  9998
2 43927  86.3990  43.3801 0002248  94.0838 266.0615 14.34222363248414
